{"type":"FeatureCollection","features":[{"type":"Feature","properties":{},"geometry":{"type":"MultiPolygon","coordinates":[[[[-7.29,57.34],[-7.19,57.3],[-7.27,57.22],[-7.36,57.25],[-7.31,57.22],[-7.26,57.21],[-7.24,57.16],[-7.36,57.15],[-7.24,57.12],[-7.22,57.11],[-7.37,57.1],[-7.46,57.24],[-7.39,57.3],[-7.43,57.39],[-7.33,57.41],[-7.25,57.35],[-7.24,57.34],[-7.29,57.34]]],[[[-7.06,57.64],[-7.1,57.61],[-7.12,57.63],[-7.22,57.64],[-7.15,57.61],[-7.17,57.6],[-7.19,57.59],[-7.1,57.59],[-7.12,57.57],[-7.31,57.55],[-7.44,57.59],[-7.48,57.57],[-7.55,57.6],[-7.49,57.66],[-7.38,57.63],[-7.31,57.69],[-7.34,57.66],[-7.28,57.66],[-7.16,57.74],[-7.16,57.66],[-7.2,57.66],[-7.16,57.65],[-7.06,57.64]]],[[[-7.14,57.55],[-7.15,57.51],[-7.18,57.51],[-7.31,57.51],[-7.35,57.54],[-7.36,57.5],[-7.4,57.55],[-7.31,57.55],[-7.14,57.55]]],[[[-6.38,58.23],[-6.28,58.21],[-6.16,58.26],[-6.16,58.22],[-6.16,58.21],[-6.21,58.19],[-6.26,58.18],[-6.39,58.21],[-6.37,58.15],[-6.42,58.14],[-6.49,58.14],[-6.44,58.13],[-6.43,58.13],[-6.46,58.11],[-6.63,58.09],[-6.4,58.11],[-6.4,58.1],[-6.37,58.05],[-6.44,58.05],[-6.36,58.04],[-6.39,58.0],[-6.46,58.02],[-6.58,58.0],[-6.45,57.99],[-6.47,57.94],[-6.52,57.93],[-6.55,57.96],[-6.57,57.91],[-6.65,57.96],[-6.61,57.92],[-6.65,57.92],[-6.71,58.01],[-6.69,58.03],[-6.66,58.04],[-6.67,58.05],[-6.59,58.05],[-6.7,58.06],[-6.76,58.0],[-6.75,57.95],[-6.67,57.88],[-6.8,57.9],[-6.74,57.83],[-6.8,57.83],[-6.79,57.8],[-6.86,57.83],[-6.87,57.77],[-6.92,57.78],[-6.9,57.76],[-6.97,57.73],[-7.13,57.84],[-7.08,57.81],[-6.99,57.87],[-6.91,57.87],[-6.95,57.9],[-6.81,57.9],[-6.9,57.95],[-7.01,57.95],[-7.02,57.95],[-7.1,57.99],[-7.11,57.99],[-7.08,58.02],[-7.04,58.03],[-7.03,58.08],[-7.1,58.07],[-7.1,58.08],[-7.14,58.12],[-7.12,58.14],[-7.11,58.18],[-7.08,58.18],[-7.01,58.18],[-7.03,58.19],[-7.07,58.2],[-7.05,58.23],[-6.91,58.21],[-6.96,58.2],[-6.89,58.19],[-6.89,58.15],[-6.86,58.11],[-6.88,58.19],[-6.87,58.19],[-6.75,58.19],[-6.73,58.17],[-6.71,58.18],[-6.8,58.24],[-6.81,58.25],[-6.77,58.28],[-6.83,58.28],[-6.8,58.3],[-6.73,58.32],[-6.67,58.34],[-6.55,58.37],[-6.46,58.42],[-6.45,58.42],[-6.35,58.47],[-6.28,58.51],[-6.27,58.51],[-6.17,58.43],[-6.17,58.42],[-6.22,58.37],[-6.16,58.34],[-6.2,58.34],[-6.38,58.23]]],[[[-6.27,55.58],[-6.34,55.59],[-6.26,55.66],[-6.33,55.74],[-6.26,55.78],[-6.35,55.78],[-6.49,55.67],[-6.51,55.68],[-6.52,55.69],[-6.52,55.7],[-6.51,55.7],[-6.46,55.75],[-6.45,55.85],[-6.33,55.89],[-6.35,55.83],[-6.32,55.82],[-6.32,55.87],[-6.13,55.94],[-6.02,55.68],[-6.07,55.64],[-6.19,55.63],[-6.27,55.58]]],[[[-6.1,57.34],[-6.17,57.3],[-6.06,57.31],[-6.08,57.27],[-6.02,57.29],[-5.89,57.24],[-5.75,57.27],[-5.65,57.26],[-5.7,57.19],[-5.81,57.18],[-5.79,57.14],[-5.89,57.06],[-6.02,57.02],[-6.0,57.12],[-5.84,57.19],[-5.99,57.17],[-6.04,57.23],[-6.08,57.13],[-6.12,57.19],[-6.32,57.16],[-6.28,57.2],[-6.35,57.19],[-6.39,57.22],[-6.35,57.23],[-6.34,57.25],[-6.41,57.23],[-6.48,57.29],[-6.43,57.34],[-6.35,57.3],[-6.31,57.3],[-6.4,57.34],[-6.38,57.36],[-6.46,57.34],[-6.49,57.4],[-6.52,57.37],[-6.54,57.41],[-6.58,57.33],[-6.79,57.42],[-6.78,57.46],[-6.72,57.45],[-6.72,57.51],[-6.64,57.44],[-6.57,57.43],[-6.64,57.5],[-6.56,57.51],[-6.66,57.55],[-6.63,57.61],[-6.47,57.5],[-6.43,57.52],[-6.45,57.48],[-6.43,57.47],[-6.4,57.53],[-6.31,57.46],[-6.43,57.64],[-6.35,57.67],[-6.35,57.71],[-6.3,57.71],[-6.14,57.59],[-6.15,57.43],[-6.2,57.41],[-6.2,57.39],[-6.14,57.41],[-6.1,57.34]]],[[[-5.96,55.79],[-6.06,55.81],[-6.1,55.87],[-6.04,55.94],[-5.91,55.96],[-5.85,55.98],[-6.01,55.97],[-6.0,55.98],[-5.96,56.03],[-5.71,56.15],[-5.69,56.11],[-5.76,56.03],[-5.87,55.89],[-5.94,55.87],[-5.96,55.79]]],[[[-5.68,56.46],[-5.65,56.46],[-5.65,56.42],[-5.68,56.44],[-5.69,56.43],[-5.67,56.39],[-5.75,56.41],[-5.79,56.37],[-5.7,56.37],[-5.83,56.31],[-5.89,56.32],[-5.85,56.35],[-5.88,56.36],[-6.05,56.29],[-6.21,56.29],[-6.22,56.29],[-6.25,56.29],[-6.26,56.26],[-6.37,56.31],[-6.37,56.34],[-6.35,56.34],[-6.35,56.35],[-6.32,56.34],[-6.31,56.34],[-6.24,56.32],[-6.25,56.34],[-6.2,56.34],[-6.1,56.34],[-5.98,56.39],[-6.05,56.38],[-6.06,56.38],[-6.21,56.37],[-6.13,56.45],[-6.05,56.45],[-6.0,56.49],[-6.12,56.47],[-6.23,56.53],[-6.33,56.53],[-6.28,56.58],[-6.32,56.61],[-6.25,56.61],[-6.19,56.58],[-6.23,56.61],[-6.2,56.64],[-6.07,56.64],[-5.95,56.52],[-5.8,56.52],[-5.71,56.47],[-5.68,56.46]]],[[[-5.4,55.61],[-5.36,55.68],[-5.25,55.72],[-5.16,55.68],[-5.13,55.61],[-5.16,55.58],[-5.15,55.58],[-5.11,55.57],[-5.08,55.55],[-5.13,55.53],[-5.08,55.51],[-5.08,55.45],[-5.25,55.44],[-5.35,55.53],[-5.4,55.61]]],[[[-4.17,53.22],[-4.22,53.19],[-4.32,53.14],[-4.33,53.17],[-4.33,53.13],[-4.42,53.13],[-4.31,53.23],[-4.44,53.15],[-4.46,53.19],[-4.51,53.19],[-4.51,53.24],[-4.59,53.28],[-4.53,53.31],[-4.58,53.33],[-4.58,53.4],[-4.47,53.42],[-4.43,53.43],[-4.29,53.42],[-4.3,53.36],[-4.23,53.36],[-4.2,53.29],[-4.04,53.31],[-4.17,53.22]]],[[[-2.96,58.98],[-2.9,59.01],[-2.91,58.96],[-2.8,58.99],[-2.79,58.97],[-2.85,58.96],[-2.82,58.92],[-2.71,58.96],[-2.71,58.92],[-2.79,58.91],[-2.83,58.87],[-2.88,58.89],[-2.9,58.88],[-2.91,58.87],[-2.86,58.85],[-2.93,58.79],[-2.92,58.74],[-2.96,58.73],[-3.02,58.81],[-3.0,58.8],[-2.97,58.82],[-3.04,58.82],[-2.91,58.84],[-2.96,58.85],[-2.92,58.87],[-2.9,58.89],[-2.9,58.9],[-2.97,58.96],[-3.2,58.91],[-3.25,58.98],[-3.31,58.95],[-3.36,58.96],[-3.33,59.14],[-3.31,59.14],[-3.3,59.14],[-3.2,59.15],[-3.07,59.12],[-3.01,59.04],[-3.07,59.05],[-3.12,59.01],[-3.04,59.01],[-2.96,58.98]]],[[[-3.05,53.25],[-3.1,53.26],[-3.06,53.27],[-3.2,53.39],[-3.04,53.44],[-3.0,53.37],[-2.93,53.31],[-2.89,53.29],[-2.79,53.3],[-2.75,53.34],[-2.68,53.35],[-2.66,53.37],[-2.62,53.37],[-2.61,53.38],[-2.6,53.37],[-2.58,53.38],[-2.61,53.39],[-2.62,53.39],[-2.76,53.35],[-2.79,53.32],[-2.88,53.33],[-2.98,53.39],[-3.11,53.55],[-3.01,53.68],[-2.97,53.69],[-2.95,53.69],[-2.95,53.68],[-2.94,53.68],[-2.94,53.73],[-3.06,53.76],[-3.04,53.92],[-3.01,53.93],[-2.98,53.86],[-2.94,53.85],[-3.0,53.93],[-2.91,53.94],[-2.9,53.94],[-2.84,53.95],[-2.88,53.98],[-2.82,53.99],[-2.83,54.04],[-2.84,54.05],[-2.85,54.04],[-2.84,54.01],[-2.88,53.99],[-2.92,54.03],[-2.79,54.13],[-2.82,54.12],[-2.87,54.18],[-2.79,54.23],[-2.79,54.25],[-2.97,54.15],[-3.04,54.2],[-3.01,54.21],[-3.05,54.23],[-3.06,54.16],[-3.17,54.08],[-3.25,54.12],[-3.26,54.17],[-3.18,54.24],[-3.22,54.28],[-3.24,54.2],[-3.31,54.19],[-3.42,54.29],[-3.42,54.34],[-3.4,54.33],[-3.35,54.37],[-3.4,54.34],[-3.43,54.38],[-3.44,54.34],[-3.64,54.52],[-3.58,54.57],[-3.58,54.65],[-3.56,54.65],[-3.54,54.65],[-3.43,54.77],[-3.4,54.87],[-3.37,54.89],[-3.36,54.89],[-3.29,54.88],[-3.3,54.86],[-3.28,54.85],[-3.26,54.91],[-3.3,54.91],[-3.28,54.94],[-3.2,54.95],[-3.12,54.93],[-3.11,54.93],[-3.13,54.95],[-3.06,54.98],[-3.04,54.97],[-3.01,54.97],[-3.05,54.99],[-3.15,54.96],[-3.27,54.97],[-3.43,54.99],[-3.44,54.99],[-3.52,54.97],[-3.56,54.98],[-3.58,55.02],[-3.6,55.03],[-3.6,55.06],[-3.62,55.07],[-3.59,54.93],[-3.56,54.91],[-3.59,54.87],[-3.69,54.89],[-3.79,54.85],[-3.83,54.92],[-3.84,54.82],[-4.05,54.77],[-4.05,54.87],[-4.1,54.77],[-4.22,54.83],[-4.22,54.85],[-4.18,54.88],[-4.19,54.89],[-4.26,54.84],[-4.3,54.84],[-4.38,54.88],[-4.41,54.96],[-4.42,54.93],[-4.43,54.93],[-4.45,54.93],[-4.4,54.89],[-4.48,54.86],[-4.42,54.86],[-4.34,54.8],[-4.36,54.7],[-4.41,54.68],[-4.42,54.68],[-4.43,54.69],[-4.49,54.7],[-4.71,54.82],[-4.81,54.86],[-4.86,54.87],[-4.87,54.86],[-4.88,54.87],[-4.96,54.8],[-4.87,54.68],[-4.87,54.63],[-4.96,54.66],[-4.96,54.73],[-5.19,54.92],[-5.16,55.01],[-5.1,55.02],[-5.06,54.92],[-5.0,54.91],[-5.06,55.03],[-5.0,55.14],[-4.87,55.22],[-4.85,55.32],[-4.75,55.42],[-4.62,55.46],[-4.69,55.64],[-4.7,55.61],[-4.82,55.64],[-4.91,55.7],[-4.86,55.76],[-4.88,55.94],[-4.78,55.96],[-4.65,55.93],[-4.49,55.93],[-4.56,55.94],[-4.57,55.97],[-4.58,55.94],[-4.7,55.97],[-4.84,56.08],[-4.77,55.99],[-4.85,55.99],[-4.88,56.06],[-4.9,55.99],[-4.96,56.01],[-4.91,55.97],[-4.98,55.86],[-5.04,55.87],[-5.12,56.01],[-5.08,55.9],[-5.18,55.93],[-5.19,55.99],[-5.24,55.89],[-5.2,55.83],[-5.31,55.85],[-5.34,56.0],[-5.2,56.13],[-5.33,56.07],[-5.38,56.0],[-5.44,56.04],[-5.42,55.86],[-5.31,55.78],[-5.45,55.71],[-5.46,55.58],[-5.49,55.58],[-5.55,55.43],[-5.6,55.43],[-5.52,55.37],[-5.6,55.31],[-5.8,55.31],[-5.8,55.39],[-5.72,55.43],[-5.68,55.68],[-5.48,55.8],[-5.44,55.86],[-5.61,55.76],[-5.61,55.8],[-5.66,55.8],[-5.57,55.94],[-5.68,55.89],[-5.69,55.91],[-5.58,56.06],[-5.72,55.95],[-5.71,55.97],[-5.58,56.09],[-5.53,56.07],[-5.51,56.08],[-5.57,56.11],[-5.51,56.19],[-5.61,56.13],[-5.54,56.22],[-5.57,56.24],[-5.48,56.26],[-5.6,56.25],[-5.58,56.33],[-5.55,56.35],[-5.52,56.34],[-5.44,56.36],[-5.54,56.36],[-5.44,56.46],[-5.41,56.46],[-5.42,56.51],[-5.47,56.48],[-5.42,56.53],[-5.37,56.52],[-5.42,56.54],[-5.32,56.65],[-4.97,56.71],[-5.16,56.69],[-5.25,56.7],[-5.19,56.75],[-5.09,56.83],[-5.19,56.86],[-5.35,56.86],[-5.12,56.83],[-5.24,56.77],[-5.24,56.72],[-5.47,56.62],[-5.53,56.62],[-5.49,56.61],[-5.55,56.55],[-5.69,56.5],[-5.77,56.53],[-5.75,56.56],[-5.78,56.53],[-5.9,56.55],[-6.0,56.65],[-5.91,56.66],[-5.88,56.65],[-5.84,56.67],[-5.97,56.67],[-6.18,56.69],[-6.23,56.73],[-6.19,56.76],[-5.97,56.78],[-5.84,56.74],[-5.89,56.79],[-5.75,56.78],[-5.86,56.83],[-5.72,56.84],[-5.67,56.87],[-5.73,56.85],[-5.79,56.86],[-5.74,56.9],[-5.92,56.88],[-5.84,56.91],[-5.88,56.92],[-5.82,56.96],[-5.83,57.01],[-5.73,57.02],[-5.63,56.97],[-5.51,56.99],[-5.62,56.98],[-5.66,57.03],[-5.74,57.03],[-5.8,57.07],[-5.65,57.13],[-5.52,57.08],[-5.38,57.11],[-5.53,57.1],[-5.69,57.17],[-5.63,57.2],[-5.64,57.25],[-5.54,57.27],[-5.42,57.22],[-5.4,57.24],[-5.52,57.27],[-5.49,57.31],[-5.59,57.27],[-5.73,57.28],[-5.69,57.34],[-5.67,57.34],[-5.65,57.33],[-5.53,57.35],[-5.44,57.42],[-5.55,57.36],[-5.64,57.37],[-5.61,57.42],[-5.73,57.35],[-5.82,57.36],[-5.81,57.44],[-5.87,57.47],[-5.84,57.58],[-5.74,57.54],[-5.71,57.56],[-5.65,57.51],[-5.66,57.54],[-5.67,57.55],[-5.82,57.64],[-5.79,57.7],[-5.67,57.7],[-5.81,57.75],[-5.81,57.86],[-5.68,57.87],[-5.67,57.8],[-5.6,57.77],[-5.58,57.84],[-5.66,57.88],[-5.62,57.92],[-5.46,57.85],[-5.42,57.91],[-5.22,57.84],[-5.39,57.91],[-5.36,57.94],[-5.13,57.87],[-5.07,57.82],[-5.1,57.87],[-5.22,57.92],[-5.18,57.94],[-5.17,57.96],[-5.31,57.98],[-5.46,58.08],[-5.44,58.1],[-5.43,58.11],[-5.36,58.06],[-5.34,58.08],[-5.3,58.06],[-5.27,58.1],[-5.28,58.11],[-5.3,58.12],[-5.26,58.12],[-5.3,58.14],[-5.24,58.15],[-5.31,58.16],[-5.28,58.17],[-5.4,58.24],[-5.38,58.26],[-5.31,58.22],[-5.22,58.26],[-5.17,58.24],[-5.16,58.23],[-5.11,58.27],[-5.08,58.26],[-5.17,58.34],[-5.18,58.35],[-5.14,58.41],[-5.02,58.38],[-5.07,58.4],[-5.03,58.41],[-5.12,58.43],[-5.07,58.45],[-4.99,58.44],[-5.13,58.49],[-5.11,58.52],[-5.02,58.6],[-5.0,58.63],[-4.99,58.62],[-4.82,58.6],[-4.81,58.51],[-4.79,58.6],[-4.65,58.55],[-4.75,58.45],[-4.61,58.51],[-4.58,58.58],[-4.56,58.58],[-4.47,58.56],[-4.46,58.56],[-4.43,58.55],[-4.41,58.52],[-4.45,58.5],[-4.49,58.44],[-4.48,58.44],[-4.34,58.54],[-4.27,58.54],[-4.21,58.49],[-4.24,58.54],[-4.21,58.54],[-4.2,58.55],[-4.19,58.55],[-4.15,58.56],[-4.13,58.57],[-4.07,58.55],[-4.02,58.6],[-4.0,58.56],[-3.96,58.57],[-3.93,58.57],[-3.9,58.54],[-3.91,58.56],[-3.78,58.56],[-3.66,58.62],[-3.54,58.62],[-3.53,58.59],[-3.46,58.61],[-3.37,58.59],[-3.35,58.62],[-3.41,58.64],[-3.38,58.67],[-3.31,58.64],[-3.02,58.64],[-3.03,58.63],[-3.04,58.63],[-3.15,58.51],[-3.11,58.48],[-3.05,58.48],[-3.06,58.44],[-3.12,58.45],[-3.07,58.43],[-3.11,58.37],[-3.21,58.31],[-3.26,58.3],[-3.27,58.3],[-3.38,58.27],[-3.51,58.17],[-3.55,58.16],[-3.55,58.15],[-3.75,58.07],[-3.8,58.06],[-4.0,57.93],[-4.01,57.86],[-4.23,57.88],[-4.29,57.86],[-4.41,57.94],[-4.3,57.85],[-4.19,57.86],[-4.16,57.83],[-4.04,57.81],[-3.97,57.85],[-3.92,57.84],[-3.91,57.83],[-3.95,57.81],[-3.89,57.82],[-3.86,57.83],[-3.77,57.87],[-3.98,57.69],[-4.04,57.7],[-4.01,57.74],[-4.04,57.73],[-4.17,57.69],[-4.29,57.68],[-4.44,57.57],[-4.23,57.67],[-4.0,57.68],[-4.1,57.61],[-4.09,57.57],[-4.25,57.55],[-4.19,57.54],[-4.23,57.5],[-4.19,57.48],[-4.04,57.56],[-4.06,57.59],[-3.87,57.58],[-3.64,57.66],[-3.59,57.63],[-3.62,57.66],[-3.34,57.72],[-3.11,57.67],[-2.85,57.71],[-2.57,57.68],[-2.53,57.65],[-2.3,57.7],[-2.29,57.69],[-2.19,57.67],[-2.18,57.67],[-2.18,57.68],[-2.16,57.68],[-2.12,57.7],[-2.0,57.7],[-1.82,57.61],[-1.81,57.52],[-1.77,57.51],[-1.78,57.47],[-1.78,57.46],[-1.8,57.44],[-1.99,57.31],[-2.11,57.18],[-2.06,57.15],[-2.09,57.15],[-2.12,57.12],[-2.05,57.13],[-2.21,56.97],[-2.23,56.86],[-2.44,56.75],[-2.45,56.7],[-2.51,56.65],[-2.48,56.62],[-2.54,56.57],[-2.73,56.46],[-3.05,56.46],[-3.23,56.37],[-2.92,56.45],[-2.81,56.44],[-2.82,56.38],[-2.88,56.37],[-2.93,56.34],[-2.82,56.37],[-2.6,56.27],[-2.81,56.18],[-2.94,56.21],[-3.01,56.19],[-3.15,56.12],[-3.17,56.06],[-3.4,56.03],[-3.39,56.01],[-3.57,56.06],[-3.69,56.05],[-3.77,56.1],[-3.8,56.11],[-3.73,56.06],[-3.72,56.03],[-3.7,56.03],[-3.68,56.04],[-3.69,56.0],[-3.6,56.02],[-3.35,56.0],[-3.3,55.98],[-3.18,55.99],[-3.05,55.94],[-2.9,55.98],[-2.81,56.06],[-2.68,56.06],[-2.58,56.02],[-2.62,56.0],[-2.51,56.01],[-2.33,55.93],[-2.14,55.92],[-1.98,55.76],[-2.01,55.77],[-1.84,55.64],[-1.78,55.64],[-1.77,55.6],[-1.72,55.62],[-1.64,55.58],[-1.58,55.43],[-1.62,55.39],[-1.57,55.34],[-1.61,55.35],[-1.63,55.35],[-1.55,55.32],[-1.57,55.28],[-1.5,55.19],[-1.54,55.16],[-1.52,55.16],[-1.5,55.13],[-1.49,55.12],[-1.4,55.01],[-1.35,54.92],[-1.29,54.76],[-1.18,54.7],[-1.16,54.65],[-1.25,54.63],[-1.16,54.61],[-1.2,54.58],[-1.19,54.57],[-1.15,54.6],[-1.14,54.65],[-0.98,54.59],[-0.77,54.56],[-0.61,54.49],[-0.63,54.47],[-0.59,54.49],[-0.36,54.25],[-0.26,54.22],[-0.28,54.19],[-0.23,54.16],[-0.08,54.11],[-0.2,54.08],[-0.22,54.02],[-0.15,53.9],[0.12,53.66],[0.14,53.62],[0.14,53.61],[0.09,53.64],[0.0,53.65],[-0.1,53.64],[-0.23,53.73],[-0.33,53.74],[-0.45,53.71],[-0.63,53.73],[-0.7,53.7],[-0.72,53.63],[-0.7,53.61],[-0.69,53.69],[-0.61,53.71],[-0.53,53.68],[-0.29,53.71],[0.04,53.51],[0.04,53.53],[0.11,53.48],[0.11,53.5],[0.15,53.49],[0.23,53.4],[0.34,53.24],[0.35,53.11],[0.33,53.09],[0.32,53.09],[0.08,52.93],[0.03,52.93],[0.04,52.9],[0.07,52.92],[0.18,52.87],[0.21,52.82],[0.22,52.82],[0.23,52.82],[0.33,52.82],[0.38,52.78],[0.36,52.81],[0.44,52.85],[0.54,52.97],[1.04,52.95],[0.98,52.98],[1.34,52.92],[1.7,52.72],[1.75,52.58],[1.72,52.63],[1.72,52.61],[1.76,52.48],[1.71,52.47],[1.76,52.47],[1.68,52.31],[1.67,52.31],[1.6,52.14],[1.54,52.09],[1.51,52.07],[1.48,52.11],[1.5,52.07],[1.46,52.04],[1.39,51.99],[1.32,51.93],[1.28,51.99],[1.27,51.99],[1.28,51.96],[1.05,51.95],[1.29,51.95],[1.18,51.87],[1.22,51.88],[1.27,51.85],[1.24,51.82],[1.04,51.77],[1.02,51.8],[1.07,51.8],[1.07,51.82],[1.01,51.81],[0.98,51.83],[0.98,51.82],[0.94,51.82],[0.99,51.81],[0.92,51.81],[0.89,51.77],[0.84,51.77],[0.88,51.76],[0.85,51.74],[0.71,51.72],[0.78,51.69],[0.79,51.72],[0.94,51.74],[0.93,51.63],[0.76,51.64],[0.87,51.62],[0.86,51.6],[0.82,51.6],[0.81,51.59],[0.79,51.57],[0.85,51.55],[0.79,51.52],[0.51,51.53],[0.54,51.51],[0.42,51.51],[0.43,51.46],[0.48,51.49],[0.7,51.47],[0.71,51.43],[0.64,51.45],[0.61,51.42],[0.54,51.41],[0.67,51.37],[0.72,51.39],[0.7,51.42],[0.73,51.42],[0.76,51.36],[0.75,51.35],[0.86,51.36],[0.9,51.34],[1.03,51.37],[1.44,51.39],[1.42,51.32],[1.38,51.33],[1.35,51.31],[1.35,51.3],[1.35,51.27],[1.37,51.31],[1.4,51.17],[1.33,51.11],[1.0,51.03],[0.98,50.91],[0.77,50.93],[0.67,50.87],[0.38,50.82],[0.24,50.73],[0.15,50.76],[0.06,50.78],[-0.09,50.81],[-0.11,50.81],[-0.17,50.82],[-0.24,50.83],[-0.25,50.83],[-0.25,50.82],[-0.54,50.8],[-0.78,50.77],[-0.75,50.76],[-0.79,50.72],[-0.92,50.78],[-0.83,50.8],[-0.87,50.82],[-0.88,50.81],[-0.93,50.85],[-1.09,50.83],[-1.17,50.86],[-1.12,50.8],[-1.15,50.79],[-1.11,50.79],[-1.14,50.77],[-1.31,50.84],[-1.31,50.85],[-1.38,50.89],[-1.37,50.91],[-1.39,50.92],[-1.39,50.88],[-1.48,50.93],[-1.49,50.91],[-1.31,50.82],[-1.34,50.79],[-1.39,50.78],[-1.4,50.78],[-1.41,50.8],[-1.45,50.82],[-1.41,50.78],[-1.54,50.76],[-1.58,50.72],[-1.55,50.71],[-1.81,50.74],[-1.75,50.71],[-1.87,50.72],[-1.95,50.68],[-1.92,50.64],[-1.96,50.59],[-2.06,50.58],[-2.13,50.61],[-2.39,50.64],[-2.47,50.58],[-2.5,50.6],[-2.78,50.71],[-2.92,50.73],[-3.02,50.7],[-3.05,50.73],[-3.1,50.69],[-3.26,50.67],[-3.36,50.61],[-3.43,50.62],[-3.42,50.61],[-3.5,50.54],[-3.51,50.48],[-3.48,50.46],[-3.56,50.43],[-3.55,50.41],[-3.48,50.4],[-3.52,50.35],[-3.57,50.35],[-3.58,50.39],[-3.69,50.44],[-3.63,50.4],[-3.67,50.4],[-3.59,50.39],[-3.6,50.36],[-3.56,50.34],[-3.65,50.28],[-3.64,50.22],[-3.72,50.2],[-3.77,50.22],[-3.72,50.25],[-3.76,50.24],[-3.72,50.27],[-3.76,50.25],[-3.76,50.28],[-3.78,50.21],[-3.82,50.22],[-3.88,50.27],[-3.87,50.28],[-3.94,50.3],[-3.93,50.35],[-3.96,50.3],[-4.02,50.29],[-4.08,50.3],[-4.06,50.31],[-4.12,50.32],[-4.14,50.36],[-4.19,50.37],[-4.2,50.39],[-4.24,50.36],[-4.18,50.36],[-4.19,50.32],[-4.28,50.36],[-4.45,50.35],[-4.47,50.39],[-4.47,50.33],[-4.63,50.33],[-4.67,50.31],[-4.69,50.35],[-4.76,50.33],[-4.8,50.22],[-4.86,50.24],[-4.96,50.2],[-4.98,50.15],[-5.01,50.14],[-4.99,50.18],[-5.02,50.15],[-5.03,50.2],[-5.03,50.21],[-5.12,50.2],[-5.06,50.19],[-5.06,50.16],[-5.1,50.17],[-5.04,50.14],[-5.1,50.1],[-5.21,50.09],[-5.1,50.09],[-5.06,50.05],[-5.1,50.0],[-5.17,50.0],[-5.19,49.96],[-5.25,49.98],[-5.32,50.09],[-5.5,50.13],[-5.55,50.11],[-5.55,50.06],[-5.68,50.03],[-5.72,50.07],[-5.67,50.16],[-5.67,50.17],[-5.5,50.22],[-5.43,50.16],[-5.4,50.24],[-5.33,50.24],[-5.15,50.35],[-5.14,50.41],[-5.07,50.4],[-5.12,50.41],[-5.04,50.44],[-5.04,50.55],[-4.94,50.57],[-4.94,50.51],[-4.86,50.53],[-4.93,50.54],[-4.93,50.59],[-4.8,50.6],[-4.76,50.67],[-4.57,50.78],[-4.53,51.02],[-4.35,50.99],[-4.22,51.07],[-4.19,51.05],[-4.16,51.07],[-4.06,51.08],[-4.11,51.09],[-4.22,51.08],[-4.26,51.14],[-4.22,51.15],[-4.2,51.2],[-3.79,51.25],[-3.5,51.22],[-3.39,51.18],[-3.02,51.22],[-3.03,51.19],[-2.98,51.22],[-3.04,51.33],[-2.99,51.3],[-2.98,51.39],[-2.89,51.39],[-2.88,51.43],[-2.77,51.49],[-2.73,51.5],[-2.62,51.45],[-2.72,51.51],[-2.48,51.73],[-2.61,51.67],[-2.65,51.61],[-2.66,51.62],[-2.71,51.58],[-2.96,51.54],[-2.98,51.54],[-2.96,51.55],[-2.99,51.61],[-3.0,51.54],[-3.11,51.49],[-3.14,51.51],[-3.17,51.41],[-3.41,51.38],[-3.56,51.4],[-3.64,51.46],[-3.62,51.48],[-3.72,51.48],[-3.82,51.57],[-3.79,51.59],[-3.85,51.61],[-3.85,51.62],[-3.99,51.6],[-3.99,51.56],[-4.1,51.58],[-4.21,51.54],[-4.31,51.56],[-4.31,51.61],[-4.25,51.65],[-4.25,51.62],[-4.21,51.62],[-4.21,51.63],[-4.21,51.64],[-4.17,51.62],[-4.08,51.65],[-4.05,51.66],[-4.08,51.66],[-4.09,51.66],[-4.15,51.65],[-4.17,51.68],[-4.31,51.67],[-4.37,51.71],[-4.38,51.73],[-4.3,51.72],[-4.3,51.74],[-4.38,51.75],[-4.37,51.79],[-4.4,51.76],[-4.45,51.8],[-4.47,51.79],[-4.49,51.81],[-4.5,51.81],[-4.51,51.81],[-4.52,51.81],[-4.42,51.74],[-4.66,51.73],[-4.71,51.65],[-4.86,51.65],[-4.93,51.6],[-5.06,51.62],[-5.07,51.66],[-5.13,51.68],[-5.03,51.7],[-4.94,51.67],[-4.98,51.69],[-4.89,51.69],[-4.92,51.7],[-4.9,51.71],[-5.09,51.71],[-5.09,51.74],[-5.16,51.71],[-5.17,51.73],[-5.18,51.68],[-5.25,51.74],[-5.1,51.78],[-5.13,51.86],[-5.32,51.87],[-5.29,51.91],[-5.09,51.97],[-5.07,52.03],[-4.99,52.03],[-4.97,51.99],[-4.91,52.03],[-4.81,52.02],[-4.85,52.04],[-4.73,52.12],[-4.68,52.09],[-4.69,52.13],[-4.52,52.13],[-4.38,52.22],[-4.21,52.26],[-4.07,52.4],[-4.06,52.53],[-4.04,52.5],[-4.04,52.53],[-3.99,52.52],[-3.89,52.58],[-4.06,52.54],[-4.13,52.61],[-4.05,52.72],[-4.06,52.72],[-4.15,52.81],[-4.11,52.83],[-4.15,52.9],[-4.08,52.9],[-4.04,52.93],[-4.1,52.91],[-4.13,52.93],[-4.15,52.91],[-4.41,52.89],[-4.53,52.78],[-4.59,52.82],[-4.73,52.78],[-4.77,52.8],[-4.65,52.91],[-4.35,53.03],[-4.35,53.11],[-4.32,53.09],[-4.2,53.21],[-3.84,53.3],[-3.81,53.27],[-3.83,53.25],[-3.81,53.24],[-3.82,53.23],[-3.84,53.19],[-3.82,53.18],[-3.82,53.16],[-3.81,53.15],[-3.8,53.27],[-3.87,53.34],[-3.71,53.29],[-3.51,53.32],[-3.51,53.31],[-3.5,53.3],[-3.45,53.28],[-3.49,53.32],[-3.31,53.36],[-3.09,53.24],[-3.06,53.23],[-3.05,53.25]]],[[[0.15,53.6],[0.14,53.59],[0.11,53.57],[0.14,53.61],[0.15,53.6]]],[[[1.58,52.09],[1.46,52.04],[1.54,52.08],[1.54,52.09],[1.57,52.1],[1.6,52.14],[1.58,52.09]]],[[[1.29,51.88],[1.29,51.86],[1.27,51.85],[1.29,51.88]]],[[[-2.42,50.57],[-2.46,50.51],[-2.45,50.56],[-2.46,50.57],[-2.42,50.57]]],[[[-1.38,60.39],[-1.45,60.42],[-1.45,60.49],[-1.5,60.45],[-1.5,60.48],[-1.54,60.49],[-1.55,60.49],[-1.61,60.47],[-1.63,60.49],[-1.56,60.5],[-1.53,60.56],[-1.47,60.51],[-1.39,60.51],[-1.5,60.55],[-1.43,60.57],[-1.42,60.61],[-1.33,60.6],[-1.31,60.64],[-1.36,60.48],[-1.32,60.5],[-1.38,60.39]]],[[[-1.33,60.44],[-1.26,60.44],[-1.28,60.49],[-1.23,60.49],[-1.16,60.44],[-1.26,60.4],[-1.19,60.42],[-1.22,60.4],[-1.17,60.41],[-1.16,60.38],[-1.12,60.4],[-1.14,60.38],[-1.08,60.39],[-1.08,60.38],[-1.08,60.36],[-1.19,60.35],[-1.08,60.31],[-1.16,60.28],[-1.11,60.26],[-1.17,60.24],[-1.2,60.27],[-1.23,60.23],[-1.19,60.23],[-1.22,60.2],[-1.17,60.22],[-1.22,60.17],[-1.15,60.2],[-1.15,60.19],[-1.15,60.18],[-1.13,60.15],[-1.14,60.15],[-1.2,60.11],[-1.23,60.1],[-1.17,60.04],[-1.21,60.04],[-1.23,60.03],[-1.2,59.97],[-1.28,59.99],[-1.29,59.92],[-1.3,59.88],[-1.29,59.86],[-1.39,59.91],[-1.37,59.92],[-1.33,59.95],[-1.29,60.19],[-1.32,60.17],[-1.33,60.17],[-1.29,60.25],[-1.35,60.2],[-1.36,60.25],[-1.44,60.25],[-1.38,60.24],[-1.36,60.19],[-1.4,60.22],[-1.46,60.15],[-1.53,60.18],[-1.55,60.19],[-1.47,60.22],[-1.51,60.24],[-1.56,60.2],[-1.56,60.23],[-1.62,60.21],[-1.63,60.21],[-1.64,60.23],[-1.7,60.25],[-1.67,60.31],[-1.57,60.29],[-1.54,60.3],[-1.51,60.32],[-1.48,60.27],[-1.43,60.33],[-1.37,60.28],[-1.34,60.36],[-1.26,60.35],[-1.38,60.39],[-1.33,60.44]]],[[[-1.12,60.43],[-1.05,60.44],[-1.12,60.4],[-1.12,60.43]]],[[[-1.16,50.65],[-1.19,50.6],[-1.3,50.58],[-1.49,50.67],[-1.59,50.66],[-1.52,50.71],[-1.51,50.68],[-1.43,50.73],[-1.44,50.7],[-1.38,50.71],[-1.41,50.73],[-1.31,50.77],[-1.29,50.7],[-1.28,50.77],[-1.23,50.72],[-1.11,50.72],[-1.07,50.69],[-1.16,50.65]]],[[[-1.09,60.6],[-1.0,60.58],[-1.01,60.57],[-1.03,60.5],[-1.12,60.51],[-1.1,60.49],[-1.15,60.48],[-1.2,60.62],[-1.19,60.62],[-1.16,60.65],[-1.15,60.62],[-1.11,60.61],[-1.13,60.73],[-1.07,60.71],[-1.04,60.73],[-0.98,60.64],[-1.07,60.67],[-1.02,60.62],[-1.07,60.61],[-1.09,60.6]]]]}}]}